SPACEMOBILE-006         
1 67232U 25309A   26069.17143945  .00003096  00000+0  16563-3 0  9997
2 67232  52.9941  64.9767 0010789 181.9143 178.1811 15.18018077 11550
